{
  "links" : {
    "next" : "https://api.nasa.gov/neo/rest/v1/feed?start_date=1999-04-09&end_date=1999-04-09&detailed=true&api_key=t0TVs3DtDT2H8Oy2Zy8m2eVrNsAVKAexjcZXUckd",
    "prev" : "https://api.nasa.gov/neo/rest/v1/feed?start_date=1999-04-07&end_date=1999-04-07&detailed=true&api_key=t0TVs3DtDT2H8Oy2Zy8m2eVrNsAVKAexjcZXUckd",
    "self" : "https://api.nasa.gov/neo/rest/v1/feed?start_date=1999-04-08&end_date=1999-04-08&detailed=true&api_key=t0TVs3DtDT2H8Oy2Zy8m2eVrNsAVKAexjcZXUckd"
  },
  "element_count" : 9,
  "near_earth_objects" : {
    "1999-04-08" : [ {
      "links" : {
        "self" : "https://api.nasa.gov/neo/rest/v1/neo/3002856?api_key=t0TVs3DtDT2H8Oy2Zy8m2eVrNsAVKAexjcZXUckd"
      },
      "neo_reference_id" : "3002856",
      "name" : "(1991 GO)",
      "nasa_jpl_url" : "http://ssd.jpl.nasa.gov/sbdb.cgi?sstr=3002856",
      "absolute_magnitude_h" : 20.0,
      "estimated_diameter" : {
        "kilometers" : {
          "estimated_diameter_min" : 0.2658,
          "estimated_diameter_max" : 0.5943468684
        },
        "meters" : {
          "estimated_diameter_min" : 265.8,
          "estimated_diameter_max" : 594.3468684194
        },
        "miles" : {
          "estimated_diameter_min" : 0.1651604118,
          "estimated_diameter_max" : 0.369309908
        },
        "feet" : {
          "estimated_diameter_min" : 872.047272,
          "estimated_diameter_max" : 1949.9569797852
        }
      },
      "is_potentially_hazardous_asteroid" : true,
      "close_approach_data" : [ {
        "close_approach_date" : "1999-04-08",
        "epoch_date_close_approach" : 923554800000,
        "relative_velocity" : {
          "kilometers_per_second" : "19.8954860722",
          "kilometers_per_hour" : "71623.7498598055",
          "miles_per_hour" : "44504.2127948331"
        },
        "miss_distance" : {
          "astronomical" : "0.0552931475",
          "lunar" : "21.5090332031",
          "kilometers" : "8271737",
          "miles" : "5139819"
        },
        "orbiting_body" : "Earth"
      } ],
      "orbital_data" : {
        "orbit_id" : "25",
        "orbit_determination_date" : "2017-04-06 09:18:25",
        "orbit_uncertainty" : "0",
        "minimum_orbit_intersection" : ".0254032",
        "jupiter_tisserand_invariant" : "3.609",
        "epoch_osculation" : "2458000.5",
        "eccentricity" : ".6541250187167202",
        "semi_major_axis" : "1.92611661680593",
        "inclination" : "9.555632639332142",
        "ascending_node_longitude" : "24.14926091422981",
        "orbital_period" : "976.3876865935516",
        "perihelion_distance" : ".6661955487871652",
        "perihelion_argument" : "89.58499675734092",
        "aphelion_distance" : "3.186037684824695",
        "perihelion_time" : "2458065.428369248125",
        "mean_anomaly" : "336.0605205798184",
        "mean_motion" : ".3687060016661803",
        "equinox" : "J2000"
      }
    }, {
      "links" : {
        "self" : "https://api.nasa.gov/neo/rest/v1/neo/3249141?api_key=t0TVs3DtDT2H8Oy2Zy8m2eVrNsAVKAexjcZXUckd"
      },
      "neo_reference_id" : "3249141",
      "name" : "(2004 PJ2)",
      "nasa_jpl_url" : "http://ssd.jpl.nasa.gov/sbdb.cgi?sstr=3249141",
      "absolute_magnitude_h" : 21.4,
      "estimated_diameter" : {
        "kilometers" : {
          "estimated_diameter_min" : 0.1394938229,
          "estimated_diameter_max" : 0.3119176705
        },
        "meters" : {
          "estimated_diameter_min" : 139.4938229344,
          "estimated_diameter_max" : 311.9176705226
        },
        "miles" : {
          "estimated_diameter_min" : 0.0866774163,
          "estimated_diameter_max" : 0.1938165949
        },
        "feet" : {
          "estimated_diameter_min" : 457.6569140361,
          "estimated_diameter_max" : 1023.3519701574
        }
      },
      "is_potentially_hazardous_asteroid" : true,
      "close_approach_data" : [ {
        "close_approach_date" : "1999-04-08",
        "epoch_date_close_approach" : 923554800000,
        "relative_velocity" : {
          "kilometers_per_second" : "7.1169308225",
          "kilometers_per_hour" : "25620.9509609238",
          "miles_per_hour" : "15919.8625568029"
        },
        "miss_distance" : {
          "astronomical" : "0.0425178017",
          "lunar" : "16.5394248962",
          "kilometers" : "6360572.5",
          "miles" : "3952276.5"
        },
        "orbiting_body" : "Earth"
      } ],
      "orbital_data" : {
        "orbit_id" : "25",
        "orbit_determination_date" : "2017-04-06 09:12:32",
        "orbit_uncertainty" : "0",
        "minimum_orbit_intersection" : ".0232584",
        "jupiter_tisserand_invariant" : "4.649",
        "epoch_osculation" : "2458000.5",
        "eccentricity" : ".3420472127755808",
        "semi_major_axis" : "1.418251361187888",
        "inclination" : "2.577362651119874",
        "ascending_node_longitude" : "317.1984175092555",
        "orbital_period" : "616.9191342583106",
        "perihelion_distance" : ".9331424360783972",
        "perihelion_argument" : "281.6296875842709",
        "aphelion_distance" : "1.903360286297378",
        "perihelion_time" : "2458091.811598519671",
        "mean_anomaly" : "306.7155845204863",
        "mean_motion" : ".5835448764817598",
        "equinox" : "J2000"
      }
    }, {
      "links" : {
        "self" : "https://api.nasa.gov/neo/rest/v1/neo/3307228?api_key=t0TVs3DtDT2H8Oy2Zy8m2eVrNsAVKAexjcZXUckd"
      },
      "neo_reference_id" : "3307228",
      "name" : "(2005 XT77)",
      "nasa_jpl_url" : "http://ssd.jpl.nasa.gov/sbdb.cgi?sstr=3307228",
      "absolute_magnitude_h" : 21.2,
      "estimated_diameter" : {
        "kilometers" : {
          "estimated_diameter_min" : 0.1529519353,
          "estimated_diameter_max" : 0.3420109247
        },
        "meters" : {
          "estimated_diameter_min" : 152.9519353442,
          "estimated_diameter_max" : 342.0109247198
        },
        "miles" : {
          "estimated_diameter_min" : 0.095039897,
          "estimated_diameter_max" : 0.2125156703
        },
        "feet" : {
          "estimated_diameter_min" : 501.8108275547,
          "estimated_diameter_max" : 1122.0831222578
        }
      },
      "is_potentially_hazardous_asteroid" : true,
      "close_approach_data" : [ {
        "close_approach_date" : "1999-04-08",
        "epoch_date_close_approach" : 923554800000,
        "relative_velocity" : {
          "kilometers_per_second" : "12.6891822513",
          "kilometers_per_hour" : "45681.0561045997",
          "miles_per_hour" : "28384.4317778831"
        },
        "miss_distance" : {
          "astronomical" : "0.4201400655",
          "lunar" : "163.4344787598",
          "kilometers" : "62852060",
          "miles" : "39054460"
        },
        "orbiting_body" : "Earth"
      } ],
      "orbital_data" : {
        "orbit_id" : "26",
        "orbit_determination_date" : "2017-04-06 09:09:38",
        "orbit_uncertainty" : "0",
        "minimum_orbit_intersection" : ".0278008",
        "jupiter_tisserand_invariant" : "6.927",
        "epoch_osculation" : "2458000.5",
        "eccentricity" : ".2662892490503571",
        "semi_major_axis" : ".8410412387622234",
        "inclination" : "17.21951849748949",
        "ascending_node_longitude" : "84.81940399453119",
        "orbital_period" : "281.7243356844349",
        "perihelion_distance" : ".6170809988718489",
        "perihelion_argument" : "149.9371528936231",
        "aphelion_distance" : "1.065001478652598",
        "perihelion_time" : "2458052.316455126139",
        "mean_anomaly" : "293.7866081036588",
        "mean_motion" : "1.277844880263532",
        "equinox" : "J2000"
      }
    } ]
  }
}